{
  "norad_id": 65028,
  "name": "STARLINK-34807",
  "history": [
    {
      "epoch": "2026-03-28T18:10:40.915200",
      "apogee_km": 475.87543340319735,
      "perigee_km": 474.49229618626396,
      "latitude_deg": -11.86891513987812,
      "longitude_deg": 35.51212800014764,
      "semi_major_axis_km": 6853.32086479473,
      "eccentricity": 0.00010091,
      "inclination_deg": 53.1579,
      "raan_deg": 205.3149,
      "arg_perigee_deg": 70.1996,
      "mean_anomaly_deg": 289.9113,
      "mean_motion_rev_day": 15.30210451
    },
    {
      "epoch": "2026-03-29T00:26:54.184416",
      "apogee_km": 476.59998312186144,
      "perigee_km": 473.8038208498501,
      "latitude_deg": -38.62939885743835,
      "longitude_deg": 60.593538240063936,
      "semi_major_axis_km": 6853.338901985855,
      "eccentricity": 0.000204,
      "inclination_deg": 53.1592,
      "raan_deg": 204.1019,
      "arg_perigee_deg": 86.6686,
      "mean_anomaly_deg": 273.4548,
      "mean_motion_rev_day": 15.3020441
    }
  ]
}